{
  "type": "FeatureCollection",
  "features": [
    {
      "type": "Feature",
      "properties": {
        "norad_id": 67053,
        "name": "STARLINK-35739",
        "group": "last-30-days",
        "lat": -30.321378442608356,
        "lon": -30.449175536528465,
        "alt_km": 348.31094477756324,
        "timestamp": "2025-12-24T09:46:29.718486+00:00",
        "meta_object_name": "STARLINK-35739",
        "meta_object_id": "2025-294Z",
        "meta_epoch": "2025-12-24T04:00:01.998720",
        "meta_mean_motion": 15.75436003,
        "meta_eccentricity": 0.0001505,
        "meta_inclination": 43.0005,
        "meta_ra_of_asc_node": 112.1354,
        "meta_arg_of_pericenter": 266.8849,
        "meta_mean_anomaly": 35.0548,
        "meta_ephemeris_type": 0,
        "meta_classification_type": "U",
        "meta_norad_cat_id": 67053,
        "meta_element_set_no": 999,
        "meta_rev_at_epoch": 178,
        "meta_bstar": -0.014162,
        "meta_mean_motion_dot": -0.01922155,
        "meta_mean_motion_ddot": 0,
        "tle_line1": "1 67053U 25294Z   25358.16668980 -.01922155  00000+0 -14162-1 0  9991",
        "tle_line2": "2 67053  43.0005 112.1354 0001505 266.8849  35.0548 15.75436003  1781"
      },
      "geometry": {
        "type": "Point",
        "coordinates": [
          -30.449175536528465,
          -30.321378442608356
        ]
      }
    },
    {
      "type": "Feature",
      "properties": {
        "norad_id": 67054,
        "name": "STARLINK-35754",
        "group": "last-30-days",
        "lat": -31.528624593107097,
        "lon": -28.15542476655997,
        "alt_km": 348.4239729748924,
        "timestamp": "2025-12-24T09:46:29.718496+00:00",
        "meta_object_name": "STARLINK-35754",
        "meta_object_id": "2025-294AA",
        "meta_epoch": "2025-12-24T04:00:01.998720",
        "meta_mean_motion": 15.75412938,
        "meta_eccentricity": 0.0001493,
        "meta_inclination": 43.0004,
        "meta_ra_of_asc_node": 112.1296,
        "meta_arg_of_pericenter": 268.0972,
        "meta_mean_anomaly": 36.1743,
        "meta_ephemeris_type": 0,
        "meta_classification_type": "U",
        "meta_norad_cat_id": 67054,
        "meta_element_set_no": 999,
        "meta_rev_at_epoch": 195,
        "meta_bstar": -0.014076,
        "meta_mean_motion_dot": -0.0191032,
        "meta_mean_motion_ddot": 0,
        "tle_line1": "1 67054U 25294AA  25358.16668980 -.01910320  00000+0 -14076-1 0  9997",
        "tle_line2": "2 67054  43.0004 112.1296 0001493 268.0972  36.1743 15.75412938  1952"
      },
      "geometry": {
        "type": "Point",
        "coordinates": [
          -28.15542476655997,
          -31.528624593107097
        ]
      }
    },
    {
      "type": "Feature",
      "properties": {
        "norad_id": 67055,
        "name": "STARLINK-35790",
        "group": "last-30-days",
        "lat": -32.66393124891474,
        "lon": -25.86511374707917,
        "alt_km": 348.550131983794,
        "timestamp": "2025-12-24T09:46:29.718510+00:00",
        "meta_object_name": "STARLINK-35790",
        "meta_object_id": "2025-294AB",
        "meta_epoch": "2025-12-24T04:00:01.998720",
        "meta_mean_motion": 15.75391265,
        "meta_eccentricity": 0.0001464,
        "meta_inclination": 43.0003,
        "meta_ra_of_asc_node": 112.1233,
        "meta_arg_of_pericenter": 269.223,
        "meta_mean_anomaly": 37.3212,
        "meta_ephemeris_type": 0,
        "meta_classification_type": "U",
        "meta_norad_cat_id": 67055,
        "meta_element_set_no": 999,
        "meta_rev_at_epoch": 214,
        "meta_bstar": -0.014063,
        "meta_mean_motion_dot": -0.01907217,
        "meta_mean_motion_ddot": 0,
        "tle_line1": "1 67055U 25294AB  25358.16668980 -.01907217  00000+0 -14063-1 0  9995",
        "tle_line2": "2 67055  43.0003 112.1233 0001464 269.2230  37.3212 15.75391265  2146"
      },
      "geometry": {
        "type": "Point",
        "coordinates": [
          -25.86511374707917,
          -32.66393124891474
        ]
      }
    },
    {
      "type": "Feature",
      "properties": {
        "norad_id": 67056,
        "name": "STARLINK-36143",
        "group": "last-30-days",
        "lat": -35.51011078937927,
        "lon": -19.37783805204056,
        "alt_km": 348.6767175193836,
        "timestamp": "2025-12-24T09:46:29.718520+00:00",
        "meta_object_name": "STARLINK-36143",
        "meta_object_id": "2025-294AC",
        "meta_epoch": "2025-12-24T04:00:01.998720",
        "meta_mean_motion": 15.75381965,
        "meta_eccentricity": 0.0001579,
        "meta_inclination": 43.0001,
        "meta_ra_of_asc_node": 112.1076,
        "meta_arg_of_pericenter": 273.5197,
        "meta_mean_anomaly": 39.1339,
        "meta_ephemeris_type": 0,
        "meta_classification_type": "U",
        "meta_norad_cat_id": 67056,
        "meta_element_set_no": 999,
        "meta_rev_at_epoch": 214,
        "meta_bstar": -0.014181,
        "meta_mean_motion_dot": -0.01920375,
        "meta_mean_motion_ddot": 0,
        "tle_line1": "1 67056U 25294AC  25358.16668980 -.01920375  00000+0 -14181-1 0  9997",
        "tle_line2": "2 67056  43.0001 112.1076 0001579 273.5197  39.1339 15.75381965  2143"
      },
      "geometry": {
        "type": "Point",
        "coordinates": [
          -19.37783805204056,
          -35.51011078937927
        ]
      }
    },
    {
      "type": "Feature",
      "properties": {
        "norad_id": 67057,
        "name": "STARLINK-36141",
        "group": "last-30-days",
        "lat": -34.573637234881744,
        "lon": -21.650123837935094,
        "alt_km": 348.59094858229764,
        "timestamp": "2025-12-24T09:46:29.718532+00:00",
        "meta_object_name": "STARLINK-36141",
        "meta_object_id": "2025-294AD",
        "meta_epoch": "2025-12-24T04:00:01.998720",
        "meta_mean_motion": 15.75389999,
        "meta_eccentricity": 0.0001536,
        "meta_inclination": 43.0001,
        "meta_ra_of_asc_node": 112.1133,
        "meta_arg_of_pericenter": 268.8481,
        "meta_mean_anomaly": 41.7078,
        "meta_ephemeris_type": 0,
        "meta_classification_type": "U",
        "meta_norad_cat_id": 67057,
        "meta_element_set_no": 999,
        "meta_rev_at_epoch": 206,
        "meta_bstar": -0.014178,
        "meta_mean_motion_dot": -0.0192058,
        "meta_mean_motion_ddot": 0,
        "tle_line1": "1 67057U 25294AD  25358.16668980 -.01920580  00000+0 -14178-1 0  9992",
        "tle_line2": "2 67057  43.0001 112.1133 0001536 268.8481  41.7078 15.75389999  2069"
      },
      "geometry": {
        "type": "Point",
        "coordinates": [
          -21.650123837935094,
          -34.573637234881744
        ]
      }
    },
    {
      "type": "Feature",
      "properties": {
        "norad_id": 67058,
        "name": "STARLINK-35767",
        "group": "last-30-days",
        "lat": -33.651676655270784,
        "lon": -23.74820826212281,
        "alt_km": 348.4753511233912,
        "timestamp": "2025-12-24T09:46:29.718542+00:00",
        "meta_object_name": "STARLINK-35767",
        "meta_object_id": "2025-294AE",
        "meta_epoch": "2025-12-24T04:00:01.998720",
        "meta_mean_motion": 15.75387322,
        "meta_eccentricity": 0.0001624,
        "meta_inclination": 43.0003,
        "meta_ra_of_asc_node": 112.1183,
        "meta_arg_of_pericenter": 267.0048,
        "meta_mean_anomaly": 41.5779,
        "meta_ephemeris_type": 0,
        "meta_classification_type": "U",
        "meta_norad_cat_id": 67058,
        "meta_element_set_no": 999,
        "meta_rev_at_epoch": 195,
        "meta_bstar": -0.014072,
        "meta_mean_motion_dot": -0.01908136,
        "meta_mean_motion_ddot": 0,
        "tle_line1": "1 67058U 25294AE  25358.16668980 -.01908136  00000+0 -14072-1 0  9999",
        "tle_line2": "2 67058  43.0003 112.1183 0001624 267.0048  41.5779 15.75387322  1956"
      },
      "geometry": {
        "type": "Point",
        "coordinates": [
          -23.74820826212281,
          -33.651676655270784
        ]
      }
    },
    {
      "type": "Feature",
      "properties": {
        "norad_id": 67059,
        "name": "HULIANWANG DIGUI-119",
        "group": "last-30-days",
        "lat": -22.99673006315969,
        "lon": -57.851405213339966,
        "alt_km": 805.260282024039,
        "timestamp": "2025-12-24T09:46:29.718554+00:00",
        "meta_object_name": "HULIANWANG DIGUI-119",
        "meta_object_id": "2025-295A",
        "meta_epoch": "2025-12-24T03:11:02.751072",
        "meta_mean_motion": 14.24616123,
        "meta_eccentricity": 0.0014024,
        "meta_inclination": 50.0051,
        "meta_ra_of_asc_node": 324.1786,
        "meta_arg_of_pericenter": 286.5508,
        "meta_mean_anomaly": 73.3865,
        "meta_ephemeris_type": 0,
        "meta_classification_type": "U",
        "meta_norad_cat_id": 67059,
        "meta_element_set_no": 999,
        "meta_rev_at_epoch": 174,
        "meta_bstar": 7.1008e-05,
        "meta_mean_motion_dot": 7e-08,
        "meta_mean_motion_ddot": 0,
        "tle_line1": "1 67059U 25295A   25358.13267073  .00000007  00000+0  71008-4 0  9998",
        "tle_line2": "2 67059  50.0051 324.1786 0014024 286.5508  73.3865 14.24616123  1740"
      },
      "geometry": {
        "type": "Point",
        "coordinates": [
          -57.851405213339966,
          -22.99673006315969
        ]
      }
    }
  ]
}